NORAD_CAT_ID,OBJECT_NAME,OBJECT_TYPE,EPOCH,MEAN_MOTION,ECCENTRICITY,INCLINATION,RA_OF_ASC_NODE,ARG_OF_PERICENTER,MEAN_ANOMALY,BSTAR,MEAN_MOTION_DOT,MEAN_MOTION_DDOT,TLE_LINE0,TLE_LINE1,TLE_LINE2,SEMIMAJOR_AXIS,PERIOD,APOGEE,PERIGEE,DECAYED
55965.0,STARLINK-5894,PAYLOAD,2023-04-04 14:00:01,15.70026035,0.000409,69.9957,130.9611,274.2578,211.1952,-0.0013561,-0.00160902,0.0,0 STARLINK-5894,1 55965U 23037BD  23094.58334491 -.00160902  00000-0 -13561-2 0  9998,2 55965  69.9957 130.9611 0004090 274.2578 211.1952 15.70026035  3324,6736.96,91.718,361.58,356.069,0.0
55965.0,STARLINK-5894,PAYLOAD,2023-04-04 22:00:00,15.69868101,0.0003906,69.9964,130.0234,267.0456,301.8084,0.00087749,0.00106409,0.0,0 STARLINK-5894,1 55965U 23037BD  23094.91667824  .00106409  00000-0  87749-3 0  9994,2 55965  69.9964 130.0234 0003906 267.0456 301.8084 15.69868101  3378,6737.411,91.727,361.908,356.645,0.0
55965.0,STARLINK-5894,PAYLOAD,2023-04-05 06:00:00,15.6995648,0.0003781,69.9972,129.0862,268.4679,23.696,-0.00059609,-0.00071385,0.0,0 STARLINK-5894,1 55965U 23037BD  23095.25001157 -.00071385  00000-0 -59609-3 0  9993,2 55965  69.9972 129.0862 0003781 268.4679  23.6960 15.69956480  3432,6737.159,91.722,361.571,356.476,0.0
55965.0,STARLINK-5894,PAYLOAD,2023-04-05 14:00:01,15.69930572,0.0003617,69.9973,128.1487,272.3987,103.1137,-0.00011236,-0.00013706,0.0,0 STARLINK-5894,1 55965U 23037BD  23095.58334491 -.00013706  00000-0 -11236-3 0  9996,2 55965  69.9973 128.1487 0003617 272.3987 103.1137 15.69930572  1308,6737.233,91.724,361.534,356.661,0.0
55965.0,STARLINK-5894,PAYLOAD,2023-04-05 16:00:00,15.69958552,0.0003536,69.9977,127.9143,270.6412,215.6986,-0.00070288,-0.00084012,0.0,0 STARLINK-5894,1 55965U 23037BD  23095.66667824 -.00084012  00000-0 -70288-3 0  9994,2 55965  69.9977 127.9143 0003536 270.6412 215.6986 15.69958552  3493,6737.153,91.722,361.4,356.635,0.0
55965.0,STARLINK-5894,PAYLOAD,2023-04-05 22:00:00,15.69865333,0.0003576,69.9975,127.2114,264.8668,193.9961,0.00087235,0.00105758,0.0,0 STARLINK-5894,1 55965U 23037BD  23095.91667824  .00105758  00000-0  87235-3 0  9991,2 55965  69.9975 127.2114 0003576 264.8668 193.9961 15.69865333  1307,6737.419,91.728,361.694,356.875,0.0
55965.0,STARLINK-5894,PAYLOAD,2023-04-06 10:00:00,15.69902348,0.0003442,69.9989,125.8054,271.3293,132.5078,0.00043438,0.00052298,0.0,0 STARLINK-5894,1 55965U 23037BD  23096.41667824  .00052298  00000-0  43438-3 0  9994,2 55965  69.9989 125.8054 0003442 271.3293 132.5078 15.69902348  3610,6737.313,91.725,361.497,356.859,0.0
55965.0,STARLINK-5894,PAYLOAD,2023-04-06 14:00:01,15.69941109,0.0003462,69.999,125.3366,271.8245,353.739,-0.00014871,-0.00018068,0.0,0 STARLINK-5894,1 55965U 23037BD  23096.58335648 -.00018068  00000-0 -14871-3 0  9996,2 55965  69.9990 125.3366 0003462 271.8245 353.7390 15.69941109  1303,6737.202,91.723,361.4,356.735,0.0
55965.0,STARLINK-5894,PAYLOAD,2023-04-06 22:00:00,15.69904196,0.0003394,69.9994,124.3995,265.8794,82.9897,0.00026187,0.00031367,0.0,0 STARLINK-5894,1 55965U 23037BD  23096.91667824  .00031367  00000-0  26187-3 0  9995,2 55965  69.9994 124.3995 0003394 265.8794  82.9897 15.69904196  3692,6737.308,91.725,361.46,356.886,0.0
55965.0,STARLINK-5894,PAYLOAD,2023-04-07 14:00:01,15.69968064,0.0003341,69.9997,122.5253,272.0818,243.4214,-0.00055892,-0.00067006,0.0,0 STARLINK-5894,1 55965U 23037BD  23097.58334491 -.00067006  00000-0 -55892-3 0  9996,2 55965  69.9997 122.5253 0003341 272.0818 243.4214 15.69968064  3793,6737.125,91.722,361.241,356.739,0.0
55965.0,STARLINK-5894,PAYLOAD,2023-04-08 04:37:55,15.69914989,0.0004461,69.9985,120.8116,283.4228,76.6471,2.6558e-05,2.981e-05,0.0,0 STARLINK-5894,1 55965U 23037BD  23098.19300466  .00002981  00000-0  26558-4 0  9996,2 55965  69.9985 120.8116 0004461 283.4228  76.6471 15.69914989  3893,6737.277,91.725,362.148,356.137,0.0
55965.0,STARLINK-5894,PAYLOAD,2023-04-08 10:44:55,15.69928067,0.0003475,69.9985,120.0949,269.1848,90.895,0.00014669,0.00017465,0.0,0 STARLINK-5894,1 55965U 23037BD  23098.44786959  .00017465  00000-0  14669-3 0  9991,2 55965  69.9985 120.0949 0003475 269.1848  90.8950 15.69928067  3939,6737.24,91.724,361.446,356.764,0.0
55965.0,STARLINK-5894,PAYLOAD,2023-04-09 03:34:12,15.69940123,0.0003547,69.9996,118.1237,260.06,100.0196,0.00013506,0.00016069,0.0,0 STARLINK-5894,1 55965U 23037BD  23099.14875022  .00016069  00000-0  13506-3 0  9997,2 55965  69.9996 118.1237 0003547 260.0600 100.0196 15.69940123  4041,6737.205,91.723,361.46,356.681,0.0
55965.0,STARLINK-5894,PAYLOAD,2023-04-09 09:41:12,15.69929034,0.0003747,70.0002,117.407,260.9007,99.1765,9.9227e-05,0.00011738,0.0,0 STARLINK-5894,1 55965U 23037BD  23099.40361824  .00011738  00000-0  99227-4 0  9999,2 55965  70.0002 117.4070 0003747 260.9007  99.1765 15.69929034  4083,6737.237,91.724,361.626,356.578,0.0
55965.0,STARLINK-5894,PAYLOAD,2023-04-09 11:12:57,15.69923536,0.0003732,70.0004,117.2277,259.573,100.5045,0.0001196,0.00014193,0.0,0 STARLINK-5894,1 55965U 23037BD  23099.46733642  .00014193  00000-0  11960-3 0  9991,2 55965  70.0004 117.2277 0003732 259.5730 100.5045 15.69923536  3755,6737.253,91.724,361.632,356.603,0.0
55965.0,STARLINK-5894,PAYLOAD,2023-04-09 18:51:43,15.69932153,0.0003639,70.0004,116.3324,259.1815,100.8971,7.9978e-05,9.418e-05,0.0,0 STARLINK-5894,1 55965U 23037BD  23099.78591891  .00009418  00000-0  79978-4 0  9992,2 55965  70.0004 116.3324 0003639 259.1815 100.8971 15.69932153  3806,6737.228,91.724,361.545,356.641,0.0
55965.0,STARLINK-5894,PAYLOAD,2023-04-10 13:12:44,15.69944478,0.000314,70.0007,114.1838,267.7617,92.3219,0.00011612,0.00013784,0.0,0 STARLINK-5894,1 55965U 23037BD  23100.55051758  .00013784  00000-0  11612-3 0  9994,2 55965  70.0007 114.1838 0003140 267.7617  92.3219 15.69944478  4261,6737.193,91.723,361.173,356.942,0.0
55965.0,STARLINK-5894,PAYLOAD,2023-04-10 17:48:00,15.69926014,0.0002307,70.0008,113.6452,275.7371,84.3561,8.797e-05,0.00010378,0.0,0 STARLINK-5894,1 55965U 23037BD  23100.74167279  .00010378  00000-0  87970-4 0  9998,2 55965  70.0008 113.6452 0002307 275.7371  84.3561 15.69926014  4298,6737.246,91.724,360.665,357.556,0.0
55965.0,STARLINK-5894,PAYLOAD,2023-04-11 04:30:16,15.69921026,0.0003072,70.0013,112.3929,264.3623,95.7222,-3.0287e-06,-5.77e-06,0.0,0 STARLINK-5894,1 55965U 23037BD  23101.18768839 -.00000577  00000-0 -30287-5 0  9998,2 55965  70.0013 112.3929 0003072 264.3623  95.7222 15.69921026  4369,6737.26,91.724,361.195,357.055,0.0
55965.0,STARLINK-5894,PAYLOAD,2023-04-11 12:09:02,15.69918696,0.0003295,70.0007,111.4969,265.3529,94.7291,-5.2671e-07,-2.76e-06,0.0,0 STARLINK-5894,1 55965U 23037BD  23101.50627501 -.00000276  00000-0 -52671-6 0  9992,2 55965  70.0007 111.4969 0003295 265.3529  94.7291 15.69918696  4071,6737.267,91.724,361.352,356.912,0.0
55965.0,STARLINK-5894,PAYLOAD,2023-04-11 18:16:02,15.69932286,0.0003651,69.9997,110.7802,263.8891,96.1888,2.8168e-05,3.177e-05,0.0,0 STARLINK-5894,1 55965U 23037BD  23101.76113566  .00003177  00000-0  28168-4 0  9994,2 55965  69.9997 110.7802 0003651 263.8891  96.1888 15.69932286  4119,6737.228,91.724,361.552,356.633,0.0
55965.0,STARLINK-5894,PAYLOAD,2023-04-12 09:33:33,15.69921636,0.000308,70.0014,108.9894,259.4895,100.5954,-1.0655e-06,-3.41e-06,0.0,0 STARLINK-5894,1 55965U 23037BD  23102.39830758 -.00000341  00000-0 -10655-5 0  9998,2 55965  70.0014 108.9894 0003080 259.4895 100.5954 15.69921636  4215,6737.258,91.724,361.198,357.048,0.0
55965.0,STARLINK-5894,PAYLOAD,2023-04-13 10:01:36,15.69900156,0.0002544,70.0018,106.1232,263.5869,96.5037,-4.1392e-05,-5.18e-05,0.0,0 STARLINK-5894,1 55965U 23037BD  23103.41778684 -.00005180  00000-0 -41392-4 0  9998,2 55965  70.0018 106.1232 0002544 263.5869  96.5037 15.69900156  4373,6737.32,91.726,360.899,357.471,0.0
55965.0,STARLINK-5894,PAYLOAD,2023-04-13 17:40:21,15.69921838,0.0002649,70.0013,105.2286,270.7163,89.3729,3.6053e-06,2.21e-06,0.0,0 STARLINK-5894,1 55965U 23037BD  23103.73636339  .00000221  00000-0  36053-5 0  9991,2 55965  70.0013 105.2286 0002649 270.7163  89.3729 15.69921838  4761,6737.258,91.724,360.907,357.338,0.0
55965.0,STARLINK-5894,PAYLOAD,2023-04-14 10:29:39,15.69892052,0.0002678,70.0008,103.2585,285.0244,75.0655,-6.5985e-05,-8.127e-05,0.0,0 STARLINK-5894,1 55965U 23037BD  23104.43725871 -.00008127  00000-0 -65985-4 0  9999,2 55965  70.0008 103.2585 0002678 285.0244  75.0655 15.69892052  4536,6737.343,91.726,361.012,357.404,0.0
55965.0,STARLINK-5894,PAYLOAD,2023-04-15 06:22:23,15.69958069,0.0002904,70.0011,100.9301,272.5229,87.5635,0.00010486,0.00012431,0.0,0 STARLINK-5894,1 55965U 23037BD  23105.26555452  .00012431  00000-0  10486-3 0  9993,2 55965  70.0011 100.9301 0002904 272.5229  87.5635 15.69958069  5006,6737.154,91.722,360.975,357.062,0.0
55965.0,STARLINK-5894,PAYLOAD,2023-04-15 09:25:55,15.69903611,0.0002219,70.0015,100.5703,281.3818,78.7128,-4.4305e-05,-5.53e-05,0.0,0 STARLINK-5894,1 55965U 23037BD  23105.39300607 -.00005530  00000-0 -44305-4 0  9999,2 55965  70.0015 100.5703 0002219 281.3818  78.7128 15.69903611  5027,6737.31,91.725,360.67,357.68,0.0
55965.0,STARLINK-5894,PAYLOAD,2023-04-15 17:04:40,15.69923303,0.0003068,70.0013,99.6756,284.7091,75.3765,1.683e-05,1.811e-05,0.0,0 STARLINK-5894,1 55965U 23037BD  23105.71158290  .00001811  00000-0  16830-4 0  9992,2 55965  70.0013  99.6756 0003068 284.7091  75.3765 15.69923303  4731,6737.253,91.724,361.185,357.051,0.0
55965.0,STARLINK-5894,PAYLOAD,2023-04-16 02:15:10,15.69941249,0.000305,70.0021,98.6003,284.5587,75.527,6.3269e-05,7.407e-05,0.0,0 STARLINK-5894,1 55965U 23037BD  23106.09387675  .00007407  00000-0  63269-4 0  9990,2 55965  70.0021  98.6003 0003050 284.5587  75.5270 15.69941249  5130,6737.202,91.723,361.122,357.012,0.0
55965.0,STARLINK-5894,PAYLOAD,2023-04-16 09:53:56,15.6992366,0.0003133,70.0012,97.7036,285.6494,74.4356,-1.7645e-05,-2.333e-05,0.0,0 STARLINK-5894,1 55965U 23037BD  23106.41246384 -.00002333  00000-0 -17645-4 0  9999,2 55965  70.0012  97.7036 0003133 285.6494  74.4356 15.69923660  5182,6737.252,91.724,361.228,357.007,0.0
